DELTA 2 R/B             
1 25876U 99041E   20017.50202183 -.00000161  00000-0  11646-4 0  9993
2 25876  51.7661 190.1744 0530413 260.9923  93.0640 14.04382733 47298
HELIOS 1B               
1 25977U 99064A   20017.01790032  .00000007  00000-0  79001-5 0  9999
2 25977  98.2580 166.7897 0002487 104.3369 255.8119 14.82455540352532
TERRA                   
1 25994U 99068A   20017.47933274  .00000054  00000-0  21939-4 0  9997
2 25994  98.2071  93.8657 0001497 111.7421 248.3936 14.57087001 68185
SL-16 R/B               
1 26070U 00006B   20017.51048268 -.00000020  00000-0  14111-4 0  9990
2 26070  71.0022 132.5432 0016850 347.8234  12.2479 14.15458278 31093
TITAN 4B R/B            
1 26474U 00047B   20017.27535460  .00000019  00000-0  12610-4 0  9990
2 26474  67.9940 134.5619 0055829 359.7245   0.3856 14.95903390 56481
ENVISAT                 
1 27386U 02009A   20017.54601294 -.00000005  00000-0  11830-4 0  9991
2 27386  98.1401  32.5593 0001197  87.7066  83.6322 14.37968738936783
IDEFIX & ARIANE 42P R/B 
1 27422U 02021B   20017.47407008 -.00000023  00000-0  74492-5 0  9999
2 27422  98.3305 345.0120 0011598 325.1069  34.9352 14.29280741921569
AQUA                    
1 27424U 02022A   20017.25052131  .00000058  00000-0  23058-4 0  9999
2 27424  98.2193 320.0191 0002811  91.4024  46.8565 14.57105121941703
CZ-4B R/B               
1 27432U 02024C   20017.00002337 -.00000030  00000-0  83311-5 0  9996
2 27432  99.0832  16.6406 0049572 246.0264 172.1340 14.14088318912182
MIDORI II (ADEOS-II)    
1 27597U 02056A   20017.21932152  .00000038  00000-0  32976-4 0  9990
2 27597  98.5018 328.7910 0002123  80.8932 279.2489 14.27428317890097
H-2A R/B                
1 27601U 02056E   20017.12751444  .00000027  00000-0  24735-4 0  9991
2 27601  98.2481  60.5689 0072290  12.2264  49.0870 14.31928248892897
CZ-4B R/B               
1 28059U 03049C   20017.23018956  .00000003  00000-0  12603-4 0  9993
2 28059  98.4897 292.0158 0049006 243.4564 116.1603 14.52585559860736
CZ-2C R/B               
1 28222U 04012C   20017.47670626  .00000242  00000-0  18568-4 0  9991
2 28222  97.6566 339.8262 0046934 188.4001 286.3810 15.10263842863094
SL-16 R/B               
1 28353U 04021B   20017.06467853  .00000211  00000-0  13529-3 0  9994
2 28353  70.9985 258.9290 0006473 221.6061 138.4569 14.14224734805601
CZ-4B R/B               
1 28415U 04035C   20017.16615221 -.00000307  00000-0 -15623-4 0  9999
2 28415  97.6357  60.2278 0052474 149.9541 210.4715 15.06791180840706
CZ-2C R/B               
1 28480U 04046B   20017.19006494 -.00000040  00000-0  41570-6 0  9997
2 28480  98.1015  63.7635 0140997 316.1971  83.1053 14.25715069788728
ARIANE 5 R/B            
1 28499U 04049H   20017.38768468  .00000009  00000-0  83677-5 0  9994
2 28499  98.0524 118.7473 0093131  45.4484 356.4591 14.80003567813648
CZ-2D R/B               
1 28738U 05024B   20017.03480218  .00000183  00000-0  14337-4 0  9999
2 28738  97.3966  44.5458 0011799 358.5747   1.5448 15.11944747798397
SUZAKU (ASTRO-EII)      
1 28773U 05025A   20017.07424164  .00000758  00000-0  32728-4 0  9993
2 28773  31.3824 287.3414 0004376 116.3826 243.7271 15.17355543800795
ALOS (DAICHI)           
1 28931U 06002A   20017.48149597  .00000081  00000-0  24444-4 0  9999
2 28931  97.8330  10.7762 0000761 100.2938 259.8346 14.62674566745487
H-2A R/B                
1 28932U 06002B   20017.17542124  .00000401  00000-0  42821-4 0  9994
2 28932  98.3078 358.7631 0090095  99.5754  29.1891 14.92121391758436
AKARI (ASTRO-F)         
1 28939U 06005A   20017.06083000  .00001348  00000-0  38851-4 0  9994
2 28939  98.2138 333.9379 0096248 136.4878 224.4007 15.33493923757535
RESURS-DK 1             
1 29228U 06021A   20017.42754215  .00000013  00000-0  83510-5 0  9998
2 29228  69.9336 215.0058 0006629 308.9845  51.0725 15.02501417749918
GENESIS 1               
1 29252U 06029A   20017.49851343  .00000282  00000-0  23904-4 0  9998
2 29252  64.5230  78.5221 0026090 197.4380 162.5850 15.17997966745111
CZ-4B R/B               
1 29507U 06046C   20017.11891061  .00000094  00000-0  12343-4 0  9996
2 29507  97.7463  39.4614 0047611 320.8667  38.9116 15.00468893722574
CZ-2C R/B               
1 31114U 07010B   20017.52537317  .00000004  00000-0  20549-4 0  9999
2 31114  98.2795 240.4235 0059582 351.0306   8.9802 14.19306279661461
COSMO-SKYMED 1          
1 31598U 07023A   20017.51166377 -.00000215  00000-0 -20406-4 0  9990
2 31598  97.8839 202.8696 0001453  89.0426 271.0952 14.82155775682329
GENESIS 2               
1 31789U 07028A   20017.49765644  .00000100  00000-0  15449-4 0  9998
2 31789  64.5049 119.8213 0051713 260.3715  99.1563 15.17133662692111
COSMOS 2428             
1 31792U 07029A   20017.29469549 -.00000222  00000-0 -94398-4 0  9993
2 31792  70.9251 232.4117 0010330 299.0463  60.9623 14.12398660647382
SL-16 R/B               
1 31793U 07029B   20017.50862875  .00000053  00000-0  52810-4 0  9990
2 31793  70.9727 205.5396 0001969 253.3125 171.5865 14.14419833648248
KORONAS-FOTON           
1 33504U 09003A   20017.45169491  .00000526  00000-0  25920-4 0  9991
2 33504  82.4416  14.0570 0020808  85.4682 274.8927 15.15547196604463
H-2A R/B                
1 38341U 12025E   20017.26848944  .00000082  00000-0  17190-4 0  9996
2 38341  98.4768 162.6462 0055530   2.3070 357.8388 14.83973594414790
CUSAT 2 & FALCON 9 R/B  
1 39271U 13055G   20017.23288401  .00003609  00000-0  88684-4 0  9990
2 39271  80.9673  70.5524 0593118 267.4698  85.8505 14.46648811328714
SL-4 R/B                
1 39679U 14021B   20017.45339185 -.00000006  00000-0  18221-4 0  9995
2 39679  51.6164  92.7316 0172814 139.0155 222.3953 15.06279827316434
ALOS-2                  
1 39766U 14029A   20017.47250851  .00000037  00000-0  11843-4 0  9990
2 39766  97.9220 116.2622 0001484  93.6939 266.4427 14.79472400305229
SL-27 R/B               
1 40354U 14084B   20017.51752006  .00000577  00000-0  15446-4 0  9992
2 40354  74.7386 342.3654 0039378 249.0148 110.6850 15.39988653285146
YAOGAN 29               
1 41038U 15069A   20017.49985160 -.00000023  00000-0  39315-5 0  9991
2 41038  97.9975   5.8437 0002152  61.0457 299.0963 14.80432183223799
ASTRO-H (HITOMI)        
1 41337U 16012A   20017.07494580  .00000185  00000-0  80737-5 0  9999
2 41337  31.0049 255.8801 0012372   4.6946 355.3803 14.98642520214623
SHENZHOU-11 MODULE      
1 41868U 16061G   20017.03839635  .00020311  00000-0  76168-4 0  9997
2 41868  42.7923   9.9957 0008996 131.8203 272.7209 15.87397307181778
HXMT (HUIYAN)           
1 42758U 17034A   20017.45447946 -.00000046  00000-0  10832-4 0  9993
2 42758  43.0175 149.7878 0009876 155.8079 254.8363 15.08735224142912
CZ-2C R/B               
1 43521U 18054D   20017.43476326  .00000308  00000-0  18762-4 0  9997
2 43521  35.1550  36.7291 0083509 217.2402 142.2500 15.10853430 86140
AEOLUS                  
1 43600U 18066A   20017.26244307  .00016001  00000-0  63811-4 0  9993
2 43600  96.7211  25.9310 0005128  90.3221 337.0694 15.86665911 81238
SAOCOM 1A               
1 43641U 18076A   20017.51981043 -.00000004  00000-0  60719-5 0  9994
2 43641  97.8841 205.8045 0001401  85.1308 275.0070 14.82155458 69090
CREW DRAGON DEMO-1 DEB  
1 44064U 19011B   20017.44646759  .00008158  00000-0  99329-4 0  9993
2 44064  51.6414   0.6496 0003326 180.7311 179.3670 15.61507858 49137
